EXPRESS-AMU1            
1 41191U 15082A   23062.55247788  .00000150  00000+0  00000+0 0  9995
2 41191   0.0216 149.6448 0002911 190.1292  56.3059  1.00275612 26213
GAOFEN 4                
1 41194U 15083A   23062.63803552 -.00000340  00000+0  00000+0 0  9997
2 41194   0.1318 142.1738 0001520 198.8741 155.4702  1.00271710 26445
BELINTERSAT-1           
1 41238U 16001A   23063.20092159  .00000101  00000+0  00000+0 0  9998
2 41238   0.0255  58.1454 0000855 186.1792  41.1844  1.00270458 26198
IRNSS-1E                
1 41241U 16003A   23061.96181209 -.00000295  00000+0  00000+0 0  9995
2 41241  30.5592  80.6156 0019883 190.0287 347.7381  1.00266744 26023
EUTELSAT 9B             
1 41310U 16005A   23063.41299293  .00000057  00000+0  00000+0 0  9994
2 41310   0.0416  70.9203 0003978 234.3733  14.2542  1.00273110 26073
SES-9                   
1 41380U 16013A   23063.50230506 -.00000350  00000+0  00000+0 0  9999
2 41380   0.0427 293.5346 0001447  95.5230  62.0524  1.00271567 25390
EUTELSAT 65 WEST A      
1 41382U 16014A   23063.46450800 -.00000281  00000+0  00000+0 0  9991
2 41382   0.0280  23.4218 0002185 322.4954 278.0790  1.00270495 25508
IRNSS-1F                
1 41384U 16015A   23063.48394575  .00000153  00000+0  00000+0 0  9999
2 41384   2.5787 139.4294 0022594 187.7230  41.4207  1.00273507 25621
BEIDOU-2 IGSO-6         
1 41434U 16021A   23063.42493517 -.00000123  00000+0  00000+0 0  9990
2 41434  58.4818  50.1465 0049140 226.0508 135.0466  1.00275118 25449
IRNSS-1G                
1 41469U 16027A   23063.62132561 -.00000340  00000+0  00000+0 0  9996
2 41469   2.4847 141.5553 0005074 280.0997  93.6446  1.00270518 25133
JCSAT-2B                
1 41471U 16028A   23062.98591359 -.00000171  00000+0  00000+0 0  9994
2 41471   0.0117 128.9660 0000931 192.3990 349.0289  1.00273005 25073
THAICOM 8               
1 41552U 16031A   23063.55717068 -.00000127  00000+0  00000+0 0  9990
2 41552   0.0603  48.0185 0004151 334.8573  58.2600  1.00273123 24677
INTELSAT 31 (IS-31)     
1 41581U 16035A   23060.14669466 -.00000156  00000+0  00000+0 0  9998
2 41581   0.0264 231.9563 0002776 342.0001 262.4613  1.00273448 24621
BEIDOU-2 G7             
1 41586U 16037A   23063.57240543 -.00000359  00000+0  00000+0 0  9991
2 41586   1.4524  64.2649 0009330 342.6484  71.7116  1.00276447 24751
ABS-2A (MONGOLSAT-1)    
1 41588U 16038A   23063.13380469 -.00000089  00000+0  00000+0 0  9998
2 41588   0.0140 130.0867 0001632 119.4705  34.9629  1.00269933 24650
EUTELSAT 117 WEST B     
1 41589U 16038B   23063.49777799 -.00000016  00000+0  00000+0 0  9994
2 41589   0.0091 277.2772 0000085 182.2060 124.6996  1.00272350 24637
BRISAT                  
1 41591U 16039A   23063.51295809 -.00000202  00000+0  00000+0 0  9995
2 41591   0.0187 158.6289 0002300 180.8949 157.6457  1.00269832 24575
ECHOSTAR 18             
1 41592U 16039B   23061.29979958 -.00000288  00000+0  00000+0 0  9997
2 41592   0.0119 129.9363 0001733 203.2767 233.1646  1.00271990 24569
MUOS-5                  
1 41622U 16041A   23063.53658187 -.00000153  00000+0  00000+0 0  9992
2 41622   5.0004 299.0307 0192763 242.7116  68.4517  1.00272208 25041
TIANTONG-1 1            
1 41725U 16048A   23063.49950737 -.00000321  00000+0  00000+0 0  9991
2 41725   2.2645  10.3661 0007998 345.2442  87.5800  1.00269038 24232
JCSAT-16                
1 41729U 16050A   23063.38313243 -.00000259  00000+0  00000+0 0  9991
2 41729   0.0429  99.6055 0003525 191.7202 101.4505  1.00271665 24023
USA 270                 
1 41744U 16052A   23058.03125000 -.00000018  00000+0  00000+0 0  9991
2 41744   1.1073  93.6213 0000770 254.9157 347.5492  1.00400187  6646
USA 271                 
1 41745U 16052B   23057.46567325  .00000104  00000+0  00000+0 0  9993
2 41745   1.0628  92.7026 0002556 242.1015  47.4817  0.99837463  6634
INTELSAT 36 (IS-36)     
1 41747U 16053A   23061.19649366 -.00000030  00000+0  00000+0 0  9996
2 41747   0.0148  89.5432 0001104 256.1817 313.2090  1.00271670 23888
INTELSAT 33E (IS-33E)   
1 41748U 16053B   23063.51778514  .00000044  00000+0  00000+0 0  9997
2 41748   0.0203 144.9253 0001646 205.0427  58.4370  1.00271407 24203
INSAT-3DR               
1 41752U 16054A   23062.12980358 -.00000083  00000+0  00000+0 0  9994
2 41752   0.0267  94.7328 0013128 185.2966   1.3179  1.00272752 23766
GSAT-18                 
1 41793U 16060A   23063.51964490 -.00000082  00000+0  00000+0 0  9998
2 41793   0.0282 132.5747 0001469 176.8886 113.6206  1.00269619 23492
SKY MUSTER 2 (NBN1B)    
1 41794U 16060B   23063.54745649 -.00000250  00000+0  00000+0 0  9992
2 41794   0.0235 155.8930 0001618 187.7676 160.2678  1.00268857 23480
HIMAWARI-9              
1 41836U 16064A   23063.54495030 -.00000280  00000+0  00000+0 0  9992
2 41836   0.0171 149.1967 0001400 210.7794 139.0016  1.00270214 23153
SHIJIAN-17 (SJ-17)      
1 41838U 16065A   23063.67757667 -.00000320  00000+0  00000+0 0  9991
2 41838   2.6848  86.7945 0003854 277.7753 139.8363  1.00423874 23198
GOES 16                 
1 41866U 16071A   23063.53528441 -.00000253  00000+0  00000+0 0  9995
2 41866   0.0900 284.5050 0000758  66.2390 288.7673  1.00271001 23071
TIANLIAN 1-04           
1 41869U 16072A   23063.49980132  .00000025  00000+0  00000+0 0  9999
2 41869   0.1882  93.4601 0020485  34.3354  30.9254  1.00269788 23271
WGS F8 (USA 272)        
1 41879U 16075A   23062.61785418 -.00000208  00000+0  00000+0 0  9990
2 41879   0.0258 116.4080 0000053 182.4182 234.5168  1.00272008 22878
FENGYUN 4A              
1 41882U 16077A   23063.35684005 -.00000335  00000+0  00000+0 0  9999
2 41882   0.1787  82.6421 0004807 347.6792 324.6332  1.00270071 22946
ECHOSTAR 19             
1 41893U 16079A   23063.51585685 -.00000143  00000+0  00000+0 0  9992
2 41893   0.0285 140.7517 0001756 199.3387 270.5344  1.00270300 22671
JCSAT-110A (JCSAT-15)   
1 41903U 16082A   23063.57249751 -.00000356  00000+0  00000+0 0  9991
2 41903   0.0135 132.9520 0001382 191.6958 153.5555  1.00270467 22722
STAR ONE D1             
1 41904U 16082B   23063.52788028 -.00000216  00000+0  00000+0 0  9997
2 41904   0.0079 130.0977 0002242 193.9023 304.0277  1.00273131 22735
TJS-2                   
1 41911U 17001A   23063.51800047 -.00000011  00000+0  00000+0 0  9995
2 41911   0.2050  83.3901 0003706 141.5132 190.0095  1.00271897 22689
SBIRS GEO-4 (USA 273)   
1 41937U 17004A   23060.79301836  .00000122  00000+0  00000+0 0  9997
2 41937   1.8798 326.6136 0025887 280.0302  40.9016  1.00617232 22524
HISPASAT 36W-1          
1 41942U 17006A   23063.39861140 -.00000249  00000+0  00000+0 0  9994
2 41942   0.0229  16.5130 0001006 324.7156 288.1434  1.00272814 22184
TELKOM 3S               
1 41944U 17007A   23063.57369668 -.00000368  00000+0  00000+0 0  9997
2 41944   0.0128 179.7674 0002516 152.5349 154.2706  1.00273234 22101
INTELSAT 32E (IS-32E)   
1 41945U 17007B   23063.11035734 -.00000274  00000+0  00000+0 0  9998
2 41945   0.0144 128.6521 0000920 161.5936 227.8926  1.00282049 22197
ECHOSTAR 23             
1 42070U 17014A   23063.35420531 -.00000062  00000+0  00000+0 0  9990
2 42070   0.0085 157.5404 0001959 183.7394 198.1641  1.00272562 21887
WGS F9 (USA 275)        
1 42075U 17016A   23063.11654604 -.00000101  00000+0  00000+0 0  9995
2 42075   0.0092 135.0948 0000718 163.4879 252.9755  1.00275730 21851
SES-10                  
1 42432U 17017A   23063.46415934 -.00000277  00000+0  00000+0 0  9996
2 42432   0.0236  88.6380 0002939 248.5094 284.9855  1.00271708 21703
CHINASAT 16 (SJ-13)     
1 42662U 17018A   23061.35044477 -.00000358  00000+0  00000+0 0  9998
2 42662   0.0803  95.2909 0005958 170.0919 131.0823  1.00267895 21684
KOREASAT 7              
1 42691U 17023A   23063.57342015 -.00000367  00000+0  00000+0 0  9991
2 42691   0.0307  42.6074 0001045 299.4387 142.3276  1.00273160 21344
SGDC                    
1 42692U 17023B   23062.75996035 -.00000255  00000+0  00000+0 0  9994
2 42692   0.0188 131.1579 0002350 213.0665  15.7683  1.00268803 21373
GSAT-9                  
1 42695U 17024A   23063.56582606 -.00000292  00000+0  00000+0 0  9994
2 42695   0.0341 247.7776 0002381  79.1144 136.1583  1.00274989 21275
INMARSAT 5-F4           
1 42698U 17025A   23062.19796648  .00000069  00000+0  00000+0 0  9990
2 42698   0.0160 131.9937 0000865 167.8599 348.5878  1.00271214 21223
SES-15                  
1 42709U 17026A   23063.51403443  .00000055  00000+0  00000+0 0  9994
2 42709   0.0274  16.9436 0000489 305.5242 255.4136  1.00270963 22107
QZS-2 (MICHIBIKI-2)     
1 42738U 17028A   23063.40744128 -.00000130  00000+0  00000+0 0  9999
2 42738  41.3424 260.4756 0746648 270.2177 278.8725  1.00265622 21102
VIASAT-2                
1 42740U 17029A   23062.08729933 -.00000271  00000+0  00000+0 0  9999
2 42740   0.0248 243.3971 0000312  43.0514 195.6417  1.00271882 21134
EUTELSAT 172B           
1 42741U 17029B   23063.51175132 -.00000011  00000+0  00000+0 0  9997
2 42741   0.0514 149.5712 0000070 124.2841 244.3580  1.00272848 21683
GSAT-19                 
1 42747U 17031A   23063.48699653  .00000120  00000+0  00000+0 0  9991
2 42747   0.0795 272.2112 0005083 125.5042 347.4274  1.00272871 21090
ECHOSTAR 21             
1 42749U 17032A   23063.35188581  .00000061  00000+0  00000+0 0  9997
2 42749   3.4427 312.6168 0002446  28.6081 317.5268  1.00272181 21069
BULGARIASAT-1           
1 42801U 17038A   23063.41299293  .00000006  00000+0  00000+0 0  9991
2 42801   0.0328 255.7388 0002665  86.4748 330.2508  1.00270745 20788
HELLAS-SAT 3            
1 42814U 17040A   23063.48525323  .00000147  00000+0  00000+0 0  9997
2 42814   0.0581  33.5029 0005145 331.7818  10.3502  1.00273268 20779
GSAT-17                 
1 42815U 17040B   23063.56536444 -.00000264  00000+0  00000+0 0  9994
2 42815   0.0708 272.9641 0005494   8.1336 177.9723  1.00274350 20742
